{"type":"Feature","properties":{"name":"West Bengal"},"geometry":{"type":"MultiPolygon","coordinates":[[[[88.221,21.762],[88.272,21.754],[88.262,21.73],[88.31,21.676],[88.286,21.604],[88.306,21.58],[88.29,21.566],[88.248,21.564],[88.243,21.597],[88.216,21.616],[88.235,21.635],[88.233,21.668],[88.198,21.689],[88.22,21.7],[88.211,21.726],[88.221,21.762]]],[[[88.137,21.875],[88.173,21.812],[88.164,21.8],[88.171,21.742],[88.155,21.685],[88.143,21.68],[88.155,21.681],[88.155,21.65],[88.141,21.632],[88.101,21.628],[88.042,21.649],[88.037,21.675],[88.073,21.78],[88.137,21.875]]],[[[88.813,22.019],[88.866,22.024],[88.875,22.012],[88.904,22.011],[88.904,21.926],[88.857,21.919],[88.825,21.94],[88.791,21.942],[88.787,21.955],[88.776,21.943],[88.752,21.957],[88.752,21.985],[88.774,21.99],[88.782,21.973],[88.8,21.97],[88.782,21.974],[88.79,21.985],[88.777,21.991],[88.754,21.988],[88.772,22.012],[88.762,22.015],[88.801,22.03],[88.813,22.019]]],[[[88.95,22.189],[88.961,22.189],[88.985,22.148],[88.979,22.133],[88.97,22.156],[88.953,22.158],[88.969,22.155],[88.985,22.127],[88.969,22.083],[88.951,22.104],[88.967,22.079],[88.925,22.065],[88.924,22.024],[88.931,22.0],[88.946,22.0],[88.935,22.055],[88.963,22.058],[88.977,22.038],[88.962,22.017],[88.976,22.004],[88.972,21.988],[88.998,21.973],[89.014,21.977],[88.992,21.947],[89.021,21.921],[89.015,21.903],[88.999,21.904],[88.969,21.922],[88.976,21.946],[88.963,21.935],[88.966,21.923],[88.936,21.936],[88.913,21.994],[88.901,22.065],[88.931,22.098],[88.923,22.123],[88.94,22.128],[88.936,22.143],[88.938,22.127],[88.913,22.13],[88.894,22.17],[88.92,22.161],[88.95,22.189]]],[[[88.695,22.209],[88.765,22.192],[88.789,22.169],[88.683,22.081],[88.691,22.057],[88.737,22.029],[88.739,22.017],[88.721,22.005],[88.665,22.023],[88.654,22.078],[88.634,22.106],[88.653,22.163],[88.695,22.209]]],[[[88.85,22.363],[88.892,22.343],[88.911,22.306],[88.936,22.301],[88.93,22.259],[88.954,22.229],[88.919,22.233],[88.905,22.223],[88.887,22.237],[88.895,22.252],[88.888,22.266],[88.844,22.29],[88.887,22.265],[88.886,22.236],[88.914,22.216],[88.904,22.197],[88.919,22.166],[88.897,22.178],[88.88,22.169],[88.866,22.194],[88.885,22.211],[88.841,22.215],[88.876,22.253],[88.839,22.216],[88.882,22.212],[88.881,22.2],[88.854,22.206],[88.844,22.19],[88.83,22.21],[88.819,22.196],[88.801,22.226],[88.819,22.231],[88.83,22.254],[88.807,22.286],[88.804,22.33],[88.818,22.359],[88.85,22.363]]],[[[88.985,22.382],[88.984,22.325],[89.023,22.298],[89.0,22.298],[88.994,22.286],[89.018,22.268],[89.015,22.252],[89.032,22.257],[89.037,22.227],[89.067,22.198],[89.069,22.147],[89.096,22.155],[89.073,22.135],[89.062,22.128],[89.024,22.165],[89.019,22.207],[88.972,22.21],[88.947,22.256],[88.954,22.36],[88.974,22.395],[88.967,22.407],[88.989,22.392],[88.985,22.382]]],[[[88.92,22.565],[88.959,22.549],[88.978,22.483],[88.995,22.467],[88.988,22.446],[88.999,22.43],[88.964,22.409],[88.97,22.394],[88.958,22.365],[88.935,22.396],[88.939,22.419],[88.934,22.396],[88.953,22.366],[88.947,22.335],[88.943,22.311],[88.928,22.314],[88.907,22.336],[88.896,22.38],[88.93,22.39],[88.908,22.416],[88.921,22.427],[88.895,22.466],[88.914,22.511],[88.895,22.56],[88.92,22.565]]],[[[88.127,27.123],[88.152,27.112],[88.179,27.135],[88.214,27.135],[88.233,27.12],[88.304,27.129],[88.324,27.105],[88.341,27.111],[88.432,27.082],[88.454,27.09],[88.474,27.121],[88.53,27.15],[88.521,27.178],[88.591,27.194],[88.66,27.162],[88.691,27.179],[88.725,27.139],[88.752,27.148],[88.87,27.109],[88.875,26.952],[88.919,26.996],[88.954,26.968],[88.955,26.954],[88.94,26.942],[88.962,26.924],[88.985,26.921],[89.025,26.94],[89.046,26.92],[89.046,26.904],[89.09,26.894],[89.102,26.836],[89.131,26.808],[89.173,26.822],[89.19,26.809],[89.256,26.817],[89.316,26.853],[89.328,26.84],[89.377,26.866],[89.391,26.841],[89.449,26.834],[89.459,26.806],[89.559,26.816],[89.622,26.777],[89.645,26.781],[89.655,26.764],[89.613,26.728],[89.632,26.719],[89.659,26.718],[89.674,26.74],[89.726,26.722],[89.757,26.736],[89.757,26.716],[89.774,26.7],[89.807,26.715],[89.857,26.704],[89.876,26.649],[89.857,26.632],[89.859,26.617],[89.877,26.613],[89.854,26.517],[89.869,26.448],[89.827,26.396],[89.84,26.391],[89.847,26.403],[89.857,26.384],[89.826,26.379],[89.82,26.35],[89.811,26.358],[89.82,26.371],[89.782,26.353],[89.781,26.331],[89.751,26.321],[89.759,26.289],[89.723,26.295],[89.718,26.306],[89.737,26.271],[89.725,26.258],[89.705,26.27],[89.701,26.259],[89.729,26.238],[89.697,26.217],[89.732,26.212],[89.712,26.203],[89.714,26.189],[89.695,26.189],[89.707,26.173],[89.734,26.175],[89.711,26.153],[89.683,26.163],[89.705,26.172],[89.676,26.201],[89.694,26.21],[89.682,26.216],[89.692,26.221],[89.682,26.222],[89.682,26.236],[89.673,26.219],[89.638,26.228],[89.653,26.19],[89.63,26.186],[89.661,26.176],[89.649,26.164],[89.62,26.178],[89.613,26.153],[89.595,26.157],[89.608,26.117],[89.615,26.127],[89.633,26.119],[89.619,26.106],[89.601,26.113],[89.597,26.101],[89.611,26.088],[89.633,26.107],[89.652,26.062],[89.622,26.053],[89.608,26.064],[89.617,26.053],[89.581,26.024],[89.591,25.976],[89.579,25.981],[89.577,25.967],[89.569,25.978],[89.558,25.965],[89.54,25.985],[89.552,26.001],[89.521,26.008],[89.467,25.998],[89.434,26.012],[89.44,26.032],[89.43,26.046],[89.397,26.02],[89.398,26.007],[89.352,26.011],[89.328,26.037],[89.283,26.049],[89.285,26.066],[89.262,26.064],[89.272,26.092],[89.257,26.092],[89.23,26.123],[89.167,26.134],[89.154,26.158],[89.162,26.161],[89.141,26.18],[89.155,26.209],[89.147,26.235],[89.108,26.282],[89.113,26.317],[89.131,26.288],[89.144,26.321],[89.105,26.33],[89.091,26.322],[89.107,26.339],[89.103,26.362],[89.087,26.366],[89.102,26.392],[89.094,26.399],[89.041,26.398],[89.029,26.416],[88.996,26.423],[88.99,26.45],[88.964,26.463],[88.97,26.454],[88.953,26.452],[88.951,26.429],[88.934,26.436],[88.935,26.414],[88.911,26.412],[88.926,26.401],[88.92,26.37],[88.964,26.366],[88.954,26.349],[88.964,26.348],[88.964,26.333],[88.968,26.354],[88.991,26.352],[89.008,26.329],[89.002,26.317],[88.992,26.32],[88.992,26.305],[89.004,26.293],[89.016,26.304],[89.024,26.292],[89.032,26.308],[89.033,26.286],[89.065,26.294],[89.07,26.255],[89.056,26.244],[88.97,26.242],[88.935,26.288],[88.888,26.292],[88.868,26.277],[88.868,26.258],[88.885,26.239],[88.847,26.234],[88.819,26.26],[88.822,26.301],[88.799,26.313],[88.762,26.301],[88.749,26.353],[88.704,26.334],[88.682,26.38],[88.703,26.388],[88.672,26.399],[88.687,26.411],[88.671,26.407],[88.625,26.435],[88.621,26.471],[88.595,26.472],[88.597,26.449],[88.557,26.457],[88.561,26.489],[88.527,26.482],[88.525,26.506],[88.494,26.514],[88.486,26.541],[88.462,26.547],[88.45,26.536],[88.435,26.547],[88.411,26.634],[88.389,26.611],[88.399,26.602],[88.378,26.594],[88.334,26.479],[88.356,26.446],[88.368,26.487],[88.405,26.485],[88.422,26.465],[88.483,26.461],[88.525,26.36],[88.506,26.348],[88.509,26.36],[88.49,26.36],[88.487,26.349],[88.458,26.374],[88.438,26.337],[88.407,26.33],[88.416,26.316],[88.389,26.314],[88.352,26.282],[88.361,26.24],[88.353,26.22],[88.276,26.187],[88.25,26.189],[88.229,26.167],[88.186,26.151],[88.161,26.078],[88.172,26.083],[88.186,26.069],[88.173,26.033],[88.187,26.024],[88.144,26.012],[88.113,25.936],[88.088,25.919],[88.093,25.894],[88.108,25.89],[88.115,25.85],[88.104,25.843],[88.105,25.826],[88.119,25.795],[88.142,25.794],[88.152,25.774],[88.186,25.799],[88.209,25.785],[88.239,25.807],[88.27,25.808],[88.272,25.78],[88.326,25.735],[88.379,25.713],[88.375,25.695],[88.406,25.682],[88.407,25.669],[88.457,25.66],[88.446,25.597],[88.5,25.581],[88.497,25.558],[88.523,25.533],[88.534,25.54],[88.543,25.507],[88.553,25.518],[88.578,25.505],[88.609,25.513],[88.625,25.495],[88.648,25.495],[88.65,25.477],[88.699,25.47],[88.711,25.497],[88.739,25.502],[88.743,25.486],[88.769,25.492],[88.763,25.521],[88.782,25.513],[88.809,25.521],[88.815,25.487],[88.832,25.485],[88.839,25.47],[88.842,25.453],[88.829,25.441],[88.837,25.425],[88.817,25.408],[88.845,25.392],[88.844,25.362],[88.889,25.323],[88.906,25.336],[88.926,25.304],[88.937,25.311],[89.011,25.294],[89.007,25.275],[88.986,25.279],[88.957,25.259],[88.959,25.22],[88.935,25.218],[88.947,25.184],[88.93,25.185],[88.923,25.167],[88.898,25.185],[88.877,25.181],[88.845,25.211],[88.804,25.172],[88.773,25.191],[88.752,25.178],[88.709,25.21],[88.617,25.206],[88.566,25.178],[88.559,25.194],[88.536,25.191],[88.537,25.201],[88.5,25.212],[88.446,25.196],[88.463,25.142],[88.443,25.126],[88.453,25.079],[88.437,25.05],[88.454,25.036],[88.414,24.994],[88.417,24.974],[88.397,24.969],[88.401,24.946],[88.384,24.938],[88.363,24.951],[88.342,24.939],[88.326,24.911],[88.348,24.892],[88.325,24.866],[88.323,24.882],[88.304,24.87],[88.3,24.885],[88.277,24.896],[88.264,24.875],[88.264,24.918],[88.228,24.959],[88.14,24.936],[88.141,24.917],[88.171,24.89],[88.155,24.887],[88.162,24.868],[88.176,24.861],[88.148,24.85],[88.136,24.805],[88.122,24.822],[88.106,24.779],[88.071,24.769],[88.065,24.721],[88.011,24.667],[88.046,24.637],[88.104,24.549],[88.148,24.506],[88.2,24.461],[88.275,24.439],[88.333,24.383],[88.367,24.373],[88.448,24.377],[88.529,24.344],[88.555,24.296],[88.57,24.327],[88.63,24.306],[88.697,24.312],[88.726,24.292],[88.738,24.268],[88.732,24.197],[88.717,24.2],[88.7,24.166],[88.71,24.119],[88.695,24.113],[88.7,24.095],[88.726,24.096],[88.722,24.066],[88.738,24.059],[88.723,24.052],[88.739,24.035],[88.727,23.995],[88.759,24.008],[88.771,23.985],[88.735,23.978],[88.742,23.936],[88.732,23.913],[88.702,23.913],[88.704,23.899],[88.667,23.884],[88.659,23.868],[88.629,23.862],[88.618,23.876],[88.576,23.86],[88.602,23.817],[88.587,23.812],[88.592,23.801],[88.58,23.788],[88.559,23.784],[88.579,23.765],[88.564,23.715],[88.574,23.668],[88.562,23.642],[88.592,23.637],[88.581,23.601],[88.645,23.608],[88.639,23.593],[88.659,23.553],[88.695,23.517],[88.727,23.508],[88.743,23.481],[88.799,23.495],[88.791,23.441],[88.765,23.443],[88.757,23.419],[88.762,23.362],[88.734,23.346],[88.746,23.31],[88.727,23.317],[88.723,23.299],[88.71,23.309],[88.697,23.296],[88.724,23.27],[88.72,23.253],[88.768,23.239],[88.797,23.216],[88.814,23.217],[88.808,23.243],[88.818,23.251],[88.831,23.245],[88.823,23.233],[88.838,23.238],[88.853,23.225],[88.913,23.23],[88.919,23.208],[88.952,23.203],[88.98,23.222],[88.995,23.212],[88.982,23.181],[88.962,23.19],[88.937,23.168],[88.921,23.126],[88.87,23.095],[88.873,23.004],[88.847,23.002],[88.868,22.99],[88.861,22.955],[88.895,22.951],[88.897,22.927],[88.914,22.919],[88.903,22.904],[88.909,22.877],[88.933,22.868],[88.946,22.877],[88.967,22.844],[88.958,22.794],[88.919,22.762],[88.921,22.734],[88.959,22.689],[88.932,22.646],[88.907,22.679],[88.865,22.665],[88.864,22.694],[88.849,22.693],[88.849,22.708],[88.809,22.712],[88.809,22.751],[88.839,22.735],[88.848,22.751],[88.832,22.754],[88.847,22.75],[88.84,22.736],[88.835,22.747],[88.827,22.739],[88.807,22.751],[88.809,22.71],[88.847,22.707],[88.848,22.691],[88.862,22.694],[88.866,22.663],[88.908,22.677],[88.933,22.619],[88.958,22.617],[88.936,22.592],[88.938,22.57],[88.869,22.546],[88.867,22.523],[88.843,22.508],[88.865,22.488],[88.851,22.475],[88.852,22.433],[88.825,22.436],[88.812,22.481],[88.772,22.513],[88.784,22.525],[88.766,22.534],[88.766,22.561],[88.764,22.528],[88.783,22.523],[88.734,22.511],[88.709,22.529],[88.691,22.524],[88.674,22.55],[88.678,22.594],[88.673,22.566],[88.69,22.523],[88.778,22.506],[88.803,22.443],[88.818,22.431],[88.848,22.431],[88.856,22.406],[88.846,22.388],[88.876,22.355],[88.819,22.364],[88.803,22.329],[88.804,22.283],[88.791,22.26],[88.744,22.229],[88.746,22.203],[88.74,22.215],[88.734,22.196],[88.635,22.216],[88.685,22.294],[88.679,22.323],[88.691,22.327],[88.671,22.326],[88.666,22.339],[88.679,22.294],[88.631,22.222],[88.639,22.208],[88.672,22.201],[88.64,22.143],[88.63,22.145],[88.619,22.109],[88.599,22.13],[88.605,22.16],[88.583,22.17],[88.577,22.198],[88.573,22.189],[88.584,22.167],[88.603,22.159],[88.598,22.131],[88.62,22.105],[88.637,22.045],[88.618,22.021],[88.603,22.024],[88.597,22.067],[88.6,22.024],[88.614,22.02],[88.604,21.995],[88.599,21.963],[88.615,21.936],[88.601,21.935],[88.609,21.918],[88.579,21.889],[88.573,21.906],[88.586,21.928],[88.573,21.907],[88.551,21.92],[88.544,21.97],[88.568,21.959],[88.557,21.974],[88.543,21.971],[88.549,21.922],[88.571,21.904],[88.541,21.904],[88.548,21.882],[88.528,21.853],[88.494,21.879],[88.526,21.929],[88.493,21.964],[88.519,21.988],[88.543,21.982],[88.555,22.036],[88.541,21.982],[88.518,21.989],[88.492,21.967],[88.522,21.939],[88.521,21.915],[88.483,21.91],[88.474,21.895],[88.456,21.9],[88.462,21.922],[88.453,21.94],[88.47,21.959],[88.446,21.966],[88.443,21.99],[88.461,22.012],[88.442,21.991],[88.445,21.964],[88.469,21.958],[88.451,21.942],[88.458,21.919],[88.42,21.907],[88.409,21.886],[88.385,21.899],[88.408,21.919],[88.394,21.937],[88.399,21.953],[88.374,21.965],[88.394,21.971],[88.374,21.969],[88.398,21.952],[88.393,21.937],[88.406,21.92],[88.383,21.901],[88.397,21.885],[88.386,21.839],[88.391,21.799],[88.364,21.798],[88.355,21.823],[88.371,21.897],[88.356,21.924],[88.369,21.897],[88.353,21.857],[88.309,21.856],[88.31,21.878],[88.301,21.861],[88.262,21.859],[88.266,21.884],[88.259,21.859],[88.299,21.859],[88.314,21.847],[88.306,21.83],[88.259,21.808],[88.282,21.761],[88.252,21.802],[88.255,21.783],[88.283,21.758],[88.264,21.731],[88.274,21.755],[88.217,21.764],[88.209,21.801],[88.163,21.879],[88.177,21.926],[88.154,21.959],[88.208,22.023],[88.224,22.075],[88.203,22.167],[88.166,22.199],[88.07,22.212],[88.105,22.305],[88.089,22.303],[88.075,22.253],[88.049,22.22],[87.985,22.246],[87.959,22.285],[87.946,22.406],[87.923,22.435],[87.884,22.442],[87.93,22.404],[87.942,22.366],[87.946,22.328],[87.936,22.317],[87.931,22.333],[87.94,22.26],[88.009,22.201],[88.035,22.209],[88.075,22.187],[88.136,22.185],[88.193,22.113],[88.189,22.099],[88.156,22.065],[88.062,22.013],[87.992,22.103],[87.963,22.103],[87.96,22.096],[87.982,22.099],[88.009,22.073],[88.018,22.04],[88.053,22.01],[87.98,21.858],[87.929,21.801],[87.89,21.794],[87.894,21.783],[87.878,21.765],[87.79,21.695],[87.753,21.7],[87.74,21.678],[87.69,21.658],[87.65,21.649],[87.644,21.66],[87.63,21.647],[87.553,21.636],[87.482,21.609],[87.482,21.626],[87.459,21.645],[87.471,21.707],[87.465,21.726],[87.443,21.729],[87.451,21.732],[87.444,21.761],[87.383,21.771],[87.37,21.76],[87.352,21.786],[87.337,21.779],[87.262,21.814],[87.235,21.896],[87.252,21.918],[87.232,21.94],[87.235,21.954],[87.195,21.954],[87.167,21.973],[87.158,21.931],[87.094,21.908],[87.095,21.86],[87.03,21.865],[86.998,21.908],[87.034,21.989],[87.018,22.041],[86.995,22.046],[86.957,22.083],[86.832,22.095],[86.797,22.126],[86.79,22.154],[86.715,22.143],[86.723,22.215],[86.767,22.211],[86.78,22.232],[86.792,22.224],[86.776,22.214],[86.8,22.214],[86.81,22.238],[86.793,22.239],[86.79,22.263],[86.801,22.262],[86.8,22.241],[86.812,22.264],[86.816,22.249],[86.823,22.261],[86.886,22.252],[86.886,22.294],[86.829,22.325],[86.844,22.396],[86.762,22.425],[86.745,22.476],[86.789,22.475],[86.799,22.499],[86.784,22.544],[86.765,22.551],[86.76,22.572],[86.652,22.576],[86.634,22.597],[86.637,22.655],[86.618,22.673],[86.539,22.721],[86.51,22.716],[86.507,22.702],[86.454,22.76],[86.416,22.777],[86.433,22.86],[86.447,22.859],[86.447,22.883],[86.463,22.897],[86.433,22.923],[86.47,22.949],[86.485,22.934],[86.497,22.948],[86.518,22.944],[86.539,22.962],[86.54,22.987],[86.512,22.966],[86.5,22.969],[86.508,22.973],[86.497,22.99],[86.416,22.995],[86.393,22.974],[86.369,22.994],[86.312,22.995],[86.298,23.013],[86.261,22.996],[86.212,22.992],[86.204,23.013],[86.176,23.013],[86.15,23.041],[86.135,23.063],[86.137,23.083],[86.048,23.109],[86.037,23.144],[85.982,23.146],[85.921,23.126],[85.877,23.159],[85.858,23.194],[85.832,23.195],[85.826,23.263],[85.878,23.324],[85.866,23.365],[85.896,23.371],[85.878,23.408],[85.863,23.41],[85.866,23.47],[85.891,23.476],[85.944,23.455],[86.047,23.494],[86.011,23.552],[86.037,23.583],[86.071,23.578],[86.073,23.568],[86.145,23.568],[86.153,23.552],[86.143,23.527],[86.155,23.504],[86.146,23.473],[86.172,23.479],[86.221,23.456],[86.225,23.47],[86.239,23.47],[86.225,23.436],[86.243,23.42],[86.253,23.425],[86.247,23.434],[86.278,23.441],[86.3,23.42],[86.314,23.428],[86.3,23.444],[86.326,23.458],[86.331,23.447],[86.355,23.482],[86.372,23.483],[86.354,23.496],[86.368,23.523],[86.358,23.543],[86.381,23.584],[86.44,23.609],[86.44,23.63],[86.529,23.629],[86.592,23.671],[86.694,23.695],[86.732,23.694],[86.738,23.678],[86.792,23.687],[86.82,23.761],[86.793,23.831],[86.821,23.811],[86.871,23.844],[86.882,23.814],[86.875,23.862],[86.895,23.88],[86.924,23.866],[86.936,23.845],[86.967,23.865],[87.057,23.816],[87.124,23.795],[87.149,23.794],[87.166,23.82],[87.13,23.851],[87.131,23.867],[87.196,23.854],[87.189,23.841],[87.236,23.853],[87.219,23.831],[87.243,23.826],[87.255,23.839],[87.248,23.907],[87.27,23.873],[87.295,23.899],[87.292,23.956],[87.262,23.966],[87.268,23.985],[87.261,24.003],[87.25,23.996],[87.241,24.006],[87.238,24.041],[87.283,24.027],[87.332,24.031],[87.315,24.004],[87.328,23.996],[87.348,23.996],[87.357,24.009],[87.439,23.978],[87.458,23.981],[87.447,24.008],[87.434,24.008],[87.483,24.014],[87.511,24.04],[87.491,24.052],[87.49,24.073],[87.506,24.082],[87.489,24.088],[87.494,24.115],[87.517,24.111],[87.539,24.088],[87.576,24.085],[87.569,24.107],[87.582,24.123],[87.608,24.129],[87.569,24.156],[87.61,24.165],[87.692,24.154],[87.693,24.186],[87.671,24.206],[87.638,24.212],[87.636,24.243],[87.647,24.249],[87.657,24.235],[87.681,24.246],[87.703,24.26],[87.71,24.292],[87.727,24.286],[87.756,24.304],[87.761,24.333],[87.798,24.382],[87.793,24.396],[87.81,24.407],[87.805,24.418],[87.785,24.415],[87.791,24.438],[87.815,24.451],[87.809,24.477],[87.823,24.494],[87.81,24.492],[87.807,24.511],[87.795,24.491],[87.806,24.545],[87.792,24.566],[87.768,24.572],[87.769,24.582],[87.809,24.576],[87.848,24.551],[87.887,24.563],[87.91,24.594],[87.908,24.608],[87.873,24.611],[87.902,24.613],[87.902,24.626],[87.885,24.627],[87.906,24.633],[87.913,24.659],[87.887,24.674],[87.901,24.722],[87.878,24.739],[87.867,24.729],[87.84,24.738],[87.814,24.753],[87.818,24.766],[87.838,24.788],[87.835,24.763],[87.855,24.764],[87.877,24.794],[87.868,24.823],[87.898,24.825],[87.889,24.853],[87.967,24.881],[87.973,24.896],[87.966,24.93],[87.877,25.028],[87.773,25.099],[87.771,25.152],[87.788,25.22],[87.837,25.199],[87.823,25.234],[87.849,25.253],[87.857,25.278],[87.85,25.297],[87.784,25.332],[87.789,25.372],[87.766,25.378],[87.76,25.41],[87.771,25.412],[87.766,25.424],[87.787,25.449],[87.809,25.434],[87.834,25.465],[87.863,25.465],[87.861,25.486],[87.879,25.516],[87.899,25.504],[87.924,25.536],[87.986,25.525],[87.987,25.503],[88.004,25.494],[88.007,25.51],[88.028,25.486],[88.07,25.481],[88.073,25.504],[88.058,25.529],[88.036,25.537],[88.027,25.553],[88.038,25.564],[88.021,25.587],[88.039,25.595],[88.03,25.6],[88.041,25.605],[88.037,25.622],[88.054,25.633],[88.036,25.637],[88.049,25.644],[88.049,25.691],[88.016,25.692],[88.017,25.705],[87.988,25.724],[87.961,25.725],[87.932,25.771],[87.898,25.77],[87.895,25.805],[87.911,25.815],[87.883,25.829],[87.911,25.852],[87.823,25.871],[87.816,25.913],[87.804,25.921],[87.83,25.935],[87.826,25.988],[87.842,26.044],[87.875,26.056],[87.913,26.091],[87.931,26.069],[87.938,26.084],[87.968,26.081],[87.954,26.103],[87.976,26.122],[87.957,26.129],[87.971,26.137],[87.964,26.152],[87.982,26.159],[88.013,26.141],[88.012,26.155],[88.037,26.178],[88.07,26.176],[88.112,26.226],[88.139,26.231],[88.144,26.253],[88.214,26.282],[88.248,26.327],[88.261,26.338],[88.276,26.332],[88.292,26.354],[88.268,26.381],[88.238,26.375],[88.23,26.394],[88.268,26.422],[88.243,26.449],[88.229,26.447],[88.215,26.466],[88.226,26.476],[88.194,26.472],[88.179,26.491],[88.233,26.532],[88.231,26.552],[88.215,26.557],[88.215,26.536],[88.168,26.537],[88.165,26.522],[88.145,26.511],[88.105,26.536],[88.116,26.572],[88.133,26.573],[88.145,26.625],[88.163,26.636],[88.17,26.699],[88.187,26.731],[88.19,26.771],[88.17,26.837],[88.176,26.865],[88.139,26.898],[88.149,26.92],[88.123,26.95],[88.137,26.985],[88.095,27.004],[88.08,27.035],[88.04,27.036],[88.019,27.073],[88.024,27.087],[87.99,27.119],[88.022,27.171],[88.015,27.217],[88.033,27.221],[88.075,27.201],[88.067,27.19],[88.086,27.142],[88.127,27.123]]]]}}